[
    {
        "Altitude(m)": 706555.6283969615,
        "Argument of Periapsis(deg)": 0.011390121186627068,
        "Eccentricity": 0.0,
        "Inclination(deg)": 45.0,
        "Latitude(deg)": -14.940483919170116,
        "Longitude(deg)": 88.835139250668,
        "Mean Anomaly(deg)": -21.194083352519215,
        "RAAN(deg)": 204.9892480585418,
        "Satellite Name": "Constellation 1 922",
        "Satellite Number": 922,
        "Semi-Major Axis(m)": 7083131.272910544,
        "Time(s)": 190
    },
    {
        "Altitude(m)": 706543.836074738,
        "Argument of Periapsis(deg)": 0.011450069192872472,
        "Eccentricity": 0.0,
        "Inclination(deg)": 45.0,
        "Latitude(deg)": -14.898870473869165,
        "Longitude(deg)": 88.87687689495942,
        "Mean Anomaly(deg)": -21.133382212269325,
        "RAAN(deg)": 204.98919146937624,
        "Satellite Name": "Constellation 1 922",
        "Satellite Number": 922,
        "Semi-Major Axis(m)": 7083131.272910544,
        "Time(s)": 191
    },
    {
        "Altitude(m)": 706532.0567938329,
        "Argument of Periapsis(deg)": 0.01151001719911788,
        "Eccentricity": 0.0,
        "Inclination(deg)": 45.0,
        "Latitude(deg)": -14.857247617380335,
        "Longitude(deg)": 88.91859704818916,
        "Mean Anomaly(deg)": -21.072681072019364,
        "RAAN(deg)": 204.98913488021063,
        "Satellite Name": "Constellation 1 922",
        "Satellite Number": 922,
        "Semi-Major Axis(m)": 7083131.272910544,
        "Time(s)": 192
    },
    {
        "Altitude(m)": 706520.2905897945,
        "Argument of Periapsis(deg)": 0.011569965205363285,
        "Eccentricity": 0.0,
        "Inclination(deg)": 45.0,
        "Latitude(deg)": -14.815615380253625,
        "Longitude(deg)": 88.96029959636958,
        "Mean Anomaly(deg)": -21.011979931769527,
        "RAAN(deg)": 204.98907829104508,
        "Satellite Name": "Constellation 1 922",
        "Satellite Number": 922,
        "Semi-Major Axis(m)": 7083131.272910544,
        "Time(s)": 193
    },
    {
        "Altitude(m)": 706508.5374981049,
        "Argument of Periapsis(deg)": 0.01162991321160869,
        "Eccentricity": 0.0,
        "Inclination(deg)": 45.0,
        "Latitude(deg)": -14.773973793004998,
        "Longitude(deg)": 89.001984929775,
        "Mean Anomaly(deg)": -20.951278791519538,
        "RAAN(deg)": 204.9890217018795,
        "Satellite Name": "Constellation 1 922",
        "Satellite Number": 922,
        "Semi-Major Axis(m)": 7083131.272910544,
        "Time(s)": 194
    },
    {
        "Altitude(m)": 706496.7975541771,
        "Argument of Periapsis(deg)": 0.011689861217854095,
        "Eccentricity": 0.0,
        "Inclination(deg)": 45.0,
        "Latitude(deg)": -14.73232288611737,
        "Longitude(deg)": 89.04365293435882,
        "Mean Anomaly(deg)": -20.890577651269705,
        "RAAN(deg)": 204.98896511271394,
        "Satellite Name": "Constellation 1 922",
        "Satellite Number": 922,
        "Semi-Major Axis(m)": 7083131.272910544,
        "Time(s)": 195
    },
    {
        "Altitude(m)": 706485.0707933687,
        "Argument of Periapsis(deg)": 0.0117498092240995,
        "Eccentricity": 0.0,
        "Inclination(deg)": 45.0,
        "Latitude(deg)": -14.690662690039868,
        "Longitude(deg)": 89.08530366414242,
        "Mean Anomaly(deg)": -20.829876511019716,
        "RAAN(deg)": 204.98890852354833,
        "Satellite Name": "Constellation 1 922",
        "Satellite Number": 922,
        "Semi-Major Axis(m)": 7083131.272910544,
        "Time(s)": 196
    },
    {
        "Altitude(m)": 706473.3572509569,
        "Argument of Periapsis(deg)": 0.011809757230344905,
        "Eccentricity": 0.0,
        "Inclination(deg)": 45.0,
        "Latitude(deg)": -14.6489932351887,
        "Longitude(deg)": 89.12693717311743,
        "Mean Anomaly(deg)": -20.76917537076988,
        "RAAN(deg)": 204.98885193438278,
        "Satellite Name": "Constellation 1 922",
        "Satellite Number": 922,
        "Semi-Major Axis(m)": 7083131.272910544,
        "Time(s)": 197
    },
    {
        "Altitude(m)": 706461.6569621623,
        "Argument of Periapsis(deg)": 0.011869705236590313,
        "Eccentricity": 0.0,
        "Inclination(deg)": 45.0,
        "Latitude(deg)": -14.60731455194662,
        "Longitude(deg)": 89.16855351524636,
        "Mean Anomaly(deg)": -20.708474230520018,
        "RAAN(deg)": 204.98879534521723,
        "Satellite Name": "Constellation 1 922",
        "Satellite Number": 922,
        "Semi-Major Axis(m)": 7083131.272910544,
        "Time(s)": 198
    },
    {
        "Altitude(m)": 706449.9699621391,
        "Argument of Periapsis(deg)": 0.011929653242835719,
        "Eccentricity": 0.0,
        "Inclination(deg)": 45.0,
        "Latitude(deg)": -14.565626670663365,
        "Longitude(deg)": 89.21015274446225,
        "Mean Anomaly(deg)": -20.64777309027016,
        "RAAN(deg)": 204.98873875605165,
        "Satellite Name": "Constellation 1 922",
        "Satellite Number": 922,
        "Semi-Major Axis(m)": 7083131.272910544,
        "Time(s)": 199
    }
]